[{"OBJECT_NAME":"STARLINK-2164","OBJECT_ID":"2021-017AE","EPOCH":"2026-03-09T13:31:35.480640","MEAN_MOTION":15.30202781,"ECCENTRICITY":0.0001169,"INCLINATION":53.1593,"RA_OF_ASC_NODE":194.1029,"ARG_OF_PERICENTER":99.597,"MEAN_ANOMALY":260.5163,"EPHEMERIS_TYPE":0,"CLASSIFICATION_TYPE":"U","NORAD_CAT_ID":47750,"ELEMENT_SET_NO":999,"REV_AT_EPOCH":27797,"BSTAR":0.00057481,"MEAN_MOTION_DOT":0.00016705,"MEAN_MOTION_DDOT":0},{"OBJECT_NAME":"TIANMU-1 08","OBJECT_ID":"2023-101B","EPOCH":"2026-03-07T00:03:25.475616","MEAN_MOTION":15.29204229,"ECCENTRICITY":0.00063808,"INCLINATION":97.2717,"RA_OF_ASC_NODE":118.7901,"ARG_OF_PERICENTER":134.2174,"MEAN_ANOMALY":225.9592,"EPHEMERIS_TYPE":0,"CLASSIFICATION_TYPE":"U","NORAD_CAT_ID":57400,"ELEMENT_SET_NO":999,"REV_AT_EPOCH":14602,"BSTAR":1.4774513e-5,"MEAN_MOTION_DOT":3.46e-6,"MEAN_MOTION_DDOT":0}]
