STARLINK-2164           
1 47750U 21017AE  26068.56360510  .00016705  00000+0  57481-3 0  9998
2 47750  53.1593 194.1029 0001169  99.5970 260.5163 15.30202781277977
TIANMU-1 08             
1 57400U 23101B   26066.00237819  .00000346  00000+0  14775-4 0  9993
2 57400  97.2717 118.7901 0006380 134.2174 225.9592 15.29204229146020
